[{"OBJECT_NAME":"STARLINK-34683","OBJECT_ID":"2025-152R","EPOCH":"2026-03-09T14:09:48.299904","MEAN_MOTION":15.05649619,"ECCENTRICITY":0.0002136,"INCLINATION":97.6013,"RA_OF_ASC_NODE":285.4335,"ARG_OF_PERICENTER":79.2546,"MEAN_ANOMALY":280.8921,"EPHEMERIS_TYPE":0,"CLASSIFICATION_TYPE":"U","NORAD_CAT_ID":64857,"ELEMENT_SET_NO":999,"REV_AT_EPOCH":3540,"BSTAR":0.00021944,"MEAN_MOTION_DOT":3.107e-5,"MEAN_MOTION_DDOT":0},{"OBJECT_NAME":"SL-18 R\/B","OBJECT_ID":"2001-007B","EPOCH":"2026-03-09T23:25:11.323200","MEAN_MOTION":15.07301441,"ECCENTRICITY":0.00085554,"INCLINATION":97.6926,"RA_OF_ASC_NODE":87.6817,"ARG_OF_PERICENTER":353.225,"MEAN_ANOMALY":6.886,"EPHEMERIS_TYPE":0,"CLASSIFICATION_TYPE":"U","NORAD_CAT_ID":26703,"ELEMENT_SET_NO":999,"REV_AT_EPOCH":64619,"BSTAR":0.00021543689,"MEAN_MOTION_DOT":3.19e-5,"MEAN_MOTION_DDOT":0}]
